OBJECT_NAME,OBJECT_ID,EPOCH,MEAN_MOTION,ECCENTRICITY,INCLINATION,RA_OF_ASC_NODE,ARG_OF_PERICENTER,MEAN_ANOMALY,EPHEMERIS_TYPE,CLASSIFICATION_TYPE,NORAD_CAT_ID,ELEMENT_SET_NO,REV_AT_EPOCH,BSTAR,MEAN_MOTION_DOT,MEAN_MOTION_DDOT
ONEWEB-0360,2021-090H,2026-06-10T01:06:35.086752,13.20765509,.00021122,87.9191,275.8637,102.6770,257.4600,0,U,49286,999,22890,.32004404E-2,.1314E-4,0
ONEWEB-0361,2021-090J,2026-06-10T00:39:54.110304,13.20770849,.00020974,87.9190,275.8659,99.4181,260.7190,0,U,49287,999,22935,-.7128899E-5,.1E-6,0
ONEWEB-0362,2021-090K,2026-06-10T03:01:48.716256,13.19724096,.00018038,87.9163,306.3851,106.1810,253.9521,0,U,49288,999,22598,.1907783E-4,.21E-6,0
ONEWEB-0363,2021-090L,2026-06-10T01:01:42.763584,13.20770410,.00021239,87.9191,275.8631,92.4226,267.7151,0,U,49289,999,22936,-.2165625E-5,.12E-6,0
ONEWEB-0364,2021-090M,2026-06-09T18:41:07.266048,13.20770982,.0001967,87.9185,275.9238,101.2480,258.8875,0,U,49290,999,23046,-.119E-4,.8E-7,0
ONEWEB-0365,2021-090N,2026-06-10T03:15:28.023264,13.19724463,.00017743,87.9172,306.3713,98.9249,261.2085,0,U,49291,999,22549,-.7357248E-4,-.17E-6,0
ONEWEB-0366,2021-090P,2026-06-10T01:15:32.924160,13.14502575,.00019292,87.8958,291.1288,100.0400,260.0947,0,U,49292,999,22662,.34029349E-3,.139E-5,0
ONEWEB-0367,2021-090Q,2026-06-10T01:00:31.296096,13.20787801,.00018883,87.9195,275.8645,104.8326,255.3016,0,U,49293,999,22888,.2822427E-2,.1161E-4,0
ONEWEB-0368,2021-090R,2026-06-09T20:44:44.291328,13.20770193,.00016011,87.9178,275.9110,78.8737,281.2576,0,U,49294,999,23001,-.93772693E-4,-.25E-6,0
ONEWEB-0369,2021-090S,2026-06-10T03:08:38.950368,13.19724343,.00017857,87.9162,306.3804,96.2186,263.9150,0,U,49295,999,22548,-.65460843E-4,-.13E-6,0
ONEWEB-0370,2021-090T,2026-06-10T01:13:50.068416,13.20770424,.00021238,87.9191,275.8622,107.4376,252.6990,0,U,49296,999,22892,-.8938017E-4,-.23E-6,0
ONEWEB-0371,2021-090U,2026-06-10T03:20:00.605760,13.19723870,.00018056,87.9170,306.3706,100.7931,259.3405,0,U,49297,999,22552,-.284822E-4,.2E-7,0
ONEWEB-0372,2021-090V,2026-06-10T00:59:05.612352,13.20771427,.00019229,87.9191,275.8660,101.2431,258.8919,0,U,49298,999,22889,-.21971274E-4,.4E-7,0
ONEWEB-0373,2021-090W,2026-06-10T01:35:39.895872,13.20770917,.00020314,87.9189,275.8614,100.9241,259.2121,0,U,49299,999,23008,-.16381381E-4,.6E-7,0
ONEWEB-0374,2021-090X,2026-06-10T02:46:53.733216,13.14502840,.00022795,87.8961,291.1067,87.6501,272.4890,0,U,49300,999,22663,.5974538E-3,.234E-5,0
ONEWEB-0375,2021-090Y,2026-06-10T01:18:42.249024,13.20770577,.00023965,87.9190,275.8552,90.7827,269.3581,0,U,49301,999,22958,.25178399E-3,.115E-5,0
ONEWEB-0376,2021-090Z,2026-06-10T03:17:44.347776,13.19724568,.00016685,87.9173,306.3707,98.5478,261.5844,0,U,49302,999,22552,-.584395E-4,-.1E-6,0
ONEWEB-0377,2021-090AA,2026-06-10T00:59:30.753024,13.20772238,.00021766,87.9190,275.8600,100.4251,259.7127,0,U,49303,999,22957,.1052923E-4,.17E-6,0
ONEWEB-0378,2021-090AB,2026-06-10T01:28:34.716288,13.20769863,.00020033,87.9187,275.8612,96.4776,263.6585,0,U,49304,999,22884,.908311E-5,.17E-6,0
ONEWEB-0379,2021-090AC,2026-06-10T02:40:02.160768,13.14502292,.00019121,87.8958,291.1186,96.0775,264.0573,0,U,49305,999,22663,.37341002E-3,.151E-5,0
ONEWEB-0380,2021-090AD,2026-06-10T03:13:12.145440,13.19724357,.00020642,87.9164,306.3771,97.8810,262.2557,0,U,49306,999,22549,-.3626031E-5,.12E-6,0
ONEWEB-0381,2021-090AE,2026-06-10T00:54:27.792288,13.20771792,.00021276,87.9191,275.8653,94.1922,265.9454,0,U,49307,999,22888,.40104034E-4,.29E-6,0
ONEWEB-0382,2021-090AF,2026-06-10T00:35:02.354784,13.20770197,.000205,87.9188,275.8621,92.0042,268.1326,0,U,49308,999,22887,-.30701801E-4,.1E-7,0
ONEWEB-0383,2021-090AG,2026-06-10T02:30:52.532352,13.14502977,.00018403,87.8963,291.1109,95.1936,264.9404,0,U,49309,999,22666,-.66073005E-3,-.232E-5,0
ONEWEB-0384,2021-090AH,2026-06-10T00:19:00.991488,13.20812498,.00020697,87.9192,275.9079,87.1450,272.9920,0,U,49310,999,22888,-.19775795E-3,-.67E-6,0
ONEWEB-0385,2021-090AJ,2026-06-10T00:25:22.368864,13.20772759,.00020385,87.9188,275.8688,94.9340,265.2026,0,U,49311,999,22885,-.16145192E-3,-.53E-6,0
ONEWEB-0386,2021-090AK,2026-06-10T00:49:36.789312,13.20771318,.0001981,87.9192,275.8562,92.6282,267.5078,0,U,49312,999,22887,.19046092E-3,.9E-6,0
ONEWEB-0387,2021-090AL,2026-06-10T00:27:47.766240,13.20772432,.00023132,87.9181,275.8818,97.5209,262.6187,0,U,49313,999,22887,.12963799E-3,.66E-6,0
ONEWEB-0388,2021-090AM,2026-06-10T03:06:22.801248,13.19724403,.00019042,87.9163,306.3762,93.3068,266.8282,0,U,49314,999,22548,.57660738E-4,.36E-6,0
ONEWEB-0389,2021-132A,2026-06-10T01:27:25.735392,13.17648237,.0002188,87.9138,7.2861,83.2108,276.9273,0,U,50469,999,21714,-.6784383E-5,.1E-6,0
ONEWEB-0390,2021-132B,2026-06-10T01:29:51.513792,13.17648043,.00019155,87.9137,7.2866,93.2935,266.8416,0,U,50470,999,21714,.53189101E-4,.34E-6,0
ONEWEB-0391,2021-132C,2026-06-10T01:32:17.396736,13.17648107,.00026882,87.9139,7.2959,89.8837,270.2602,0,U,50471,999,21714,.2624377E-4,.23E-6,0
ONEWEB-0392,2021-132D,2026-06-10T00:26:41.543232,13.17648291,.00022278,87.9147,7.2727,84.6152,275.5234,0,U,50472,999,21717,.1724788E-3,.8E-6,0
ONEWEB-0393,2021-132E,2026-06-10T01:40:48.082080,13.17649443,.0002037,87.9137,7.2804,85.6891,274.4473,0,U,50473,999,21717,.87815674E-4,.47E-6,0
ONEWEB-0394,2021-132F,2026-06-10T04:38:24.500832,13.18685237,.00020376,87.9167,336.8335,87.3160,272.8205,0,U,50474,999,22067,-.79194919E-4,-.18E-6,0
ONEWEB-0395,2021-132G,2026-06-10T01:42:53.476128,13.11416306,.00019628,87.8889,22.4841,89.1203,271.0150,0,U,50475,999,21478,.15730784E-2,.57E-5,0
ONEWEB-0396,2021-132H,2026-06-10T04:28:41.681856,13.18684901,.00019681,87.9168,336.8476,87.4083,272.7274,0,U,50476,999,22071,.2947821E-5,.14E-6,0
ONEWEB-0397,2021-132J,2026-06-10T04:50:33.227808,13.18685016,.00019368,87.9168,336.8445,83.8779,276.2574,0,U,50477,999,22069,-.23067225E-4,.4E-7,0
ONEWEB-0398,2021-132K,2026-06-10T00:56:28.296960,13.11418353,.00018542,87.8900,22.4806,93.9799,266.1540,0,U,50478,999,21467,-.11001904E-2,-.377E-5,0
ONEWEB-0399,2021-132L,2026-06-10T02:26:48.740064,13.11416042,.00022444,87.8899,22.4786,76.7927,283.3451,0,U,50479,999,21467,-.16750972E-2,-.581E-5,0
ONEWEB-0400,2021-132M,2026-06-10T04:18:59.593824,13.18685216,.00018644,87.9168,336.8388,96.6095,263.5249,0,U,50480,999,22068,.6606672E-4,.39E-6,0
ONEWEB-0401,2021-132N,2026-06-10T05:24:32.660928,13.18684095,.0001695,87.9169,336.8269,84.9650,275.1675,0,U,50481,999,22069,.21254179E-3,.97E-6,0
ONEWEB-0402,2021-132P,2026-06-10T04:31:08.703552,13.18685865,.00016541,87.9166,336.8235,75.8983,284.2332,0,U,50482,999,22071,-.5980994E-5,.11E-6,0
ONEWEB-0403,2021-132Q,2026-06-10T05:07:32.834208,13.18684473,.00020066,87.9168,336.8429,90.5307,269.6055,0,U,50483,999,22067,.33060929E-4,.26E-6,0
ONEWEB-0404,2021-132R,2026-06-10T03:49:50.495808,13.11415017,.00021368,87.8894,22.4660,84.4554,275.6817,0,U,50484,999,21477,.12355964E-3,.56E-6,0
ONEWEB-0405,2021-132S,2026-06-10T05:26:59.414784,13.18686074,.00019019,87.9170,336.8246,105.5185,254.6157,0,U,50485,999,22107,.4779316E-4,.32E-6,0
ONEWEB-0406,2021-132T,2026-06-10T05:14:50.133120,13.18685060,.00024057,87.9163,336.8431,89.1892,270.9515,0,U,50486,999,22070,-.8684913E-5,.9E-7,0
ONEWEB-0407,2021-132U,2026-06-10T05:05:07.934496,13.18684581,.00016377,87.9168,336.8365,92.5890,267.5429,0,U,50487,999,22064,.11365644E-3,.58E-6,0
ONEWEB-0409,2021-132V,2026-06-10T03:47:23.613216,13.11415884,.00020858,87.8898,22.4541,87.2949,272.8418,0,U,50488,999,21466,.41274699E-3,.159E-5,0
ONEWEB-0412,2021-132W,2026-06-09T23:20:19.997088,13.18684738,.00017201,87.9165,336.8922,82.0603,278.0725,0,U,50489,999,22070,.16247554E-3,.77E-6,0
ONEWEB-0413,2021-132X,2026-06-10T04:55:24.871872,13.18684170,.0001566,87.9156,336.8453,85.2187,274.9124,0,U,50490,999,22067,.76101908E-3,.313E-5,0
ONEWEB-0414,2021-132Y,2026-06-10T04:33:33.700032,13.18685482,.00018821,87.9167,336.8295,85.6893,274.4454,0,U,50491,999,22070,-.1310842E-3,-.39E-6,0
ONEWEB-0417,2021-132Z,2026-06-10T04:45:42.007968,13.18685333,.00020868,87.9158,336.8480,91.4541,268.6830,0,U,50492,999,22068,-.23487759E-4,.4E-7,0
ONEWEB-0418,2021-132AA,2026-06-10T05:00:05.049792,13.18684534,.00021429,87.9168,336.8453,92.4387,267.6990,0,U,50493,999,22074,-.80351521E-4,-.19E-6,0
ONEWEB-0419,2021-132AB,2026-06-10T05:26:42.092448,13.18665231,.00020671,87.9168,336.8411,97.5093,262.6274,0,U,50494,999,22066,.11163947E-3,.57E-6,0
ONEWEB-0420,2021-132AC,2026-06-10T04:35:59.158752,13.18685698,.00016346,87.9158,336.8514,92.6228,267.5091,0,U,50495,999,22065,.15166545E-3,.73E-6,0
ONEWEB-0421,2021-132AD,2026-06-10T04:26:16.096992,13.18684793,.0001904,87.9162,336.8502,79.3425,280.7922,0,U,50496,999,22069,-.59173304E-4,-.1E-6,0
ONEWEB-0424,2021-132AE,2026-06-10T05:19:41.520576,13.18684815,.00020149,87.9165,336.8408,101.6312,258.5047,0,U,50497,999,22072,-.49239953E-4,-.6E-7,0
ONEWEB-0426,2021-132AF,2026-06-10T04:20:12.555168,13.18688606,.00024029,87.9166,336.8399,79.2851,280.8552,0,U,50498,999,22066,.1565682E-4,.19E-6,0
ONEWEB-0427,2021-132AG,2026-06-10T05:17:15.867456,13.18684549,.00020753,87.9168,336.8208,90.5936,269.5434,0,U,50499,999,22069,.12068284E-4,.18E-6,0
ONEWEB-0429,2021-132AH,2026-06-10T04:57:50.569920,13.18685129,.00017349,87.9161,336.8487,91.5228,268.6103,0,U,50500,999,22066,.2808465E-5,.14E-6,0
ONEWEB-0430,2021-132AJ,2026-06-10T04:40:50.603232,13.18686096,.00017201,87.9160,336.8491,98.5874,261.5453,0,U,50501,999,22070,.31217746E-4,.25E-6,0
ONEWEB-0432,2021-132AK,2026-06-10T08:00:01.999872,13.17139610,.0002059,87.9183,336.7909,109.4782,19.2584,0,U,50502,999,507,.11164045E+0,.43239E-3,0
ONEWEB-0440,2021-132AL,2026-06-10T05:09:58.595328,13.18684602,.000166,87.9167,336.8408,82.6293,277.5028,0,U,50503,999,22065,.85055572E-4,.46E-6,0
ONEWEB-0450,2021-132AM,2026-06-09T23:32:41.329824,13.18685437,.00016565,87.9156,336.8933,93.3933,266.7389,0,U,50504,999,22065,.12858673E-3,.64E-6,0
